[{"OBJECT_NAME":"HAIYANG-1C","OBJECT_ID":"2018-068A","EPOCH":"2026-03-09T23:11:36.870144","MEAN_MOTION":14.34145137,"ECCENTRICITY":0.00114449,"INCLINATION":98.527,"RA_OF_ASC_NODE":142.6779,"ARG_OF_PERICENTER":34.5915,"MEAN_ANOMALY":325.6013,"EPHEMERIS_TYPE":0,"CLASSIFICATION_TYPE":"U","NORAD_CAT_ID":43609,"ELEMENT_SET_NO":999,"REV_AT_EPOCH":39286,"BSTAR":4.0329797e-5,"MEAN_MOTION_DOT":6.9e-7,"MEAN_MOTION_DDOT":0},{"OBJECT_NAME":"COSMOS 2251 DEB","OBJECT_ID":"1993-036BYD","EPOCH":"2026-02-22T19:17:49.360992","MEAN_MOTION":14.0488758,"ECCENTRICITY":0.01587081,"INCLINATION":74.0811,"RA_OF_ASC_NODE":76.4519,"ARG_OF_PERICENTER":97.3808,"MEAN_ANOMALY":264.5395,"EPHEMERIS_TYPE":0,"CLASSIFICATION_TYPE":"U","NORAD_CAT_ID":47073,"ELEMENT_SET_NO":999,"REV_AT_EPOCH":61373,"BSTAR":0.00043661801,"MEAN_MOTION_DOT":7.63e-6,"MEAN_MOTION_DDOT":0}]
